SBIRS GEO-6 (USA 336)   
1 53355U 22092A   26155.87778468 -.00000281  00000+0  00000+0 0  9990
2 53355   3.2791 317.2810 0002195 114.3379 276.7161  1.00271658 14119
EUTELSAT KONNECT VHTS   
1 53765U 22110A   26155.92206575  .00000029  00000+0  00000+0 0  9996
2 53765   0.0654 105.0800 0002861 315.2195 167.7176  1.00271378  6718
ZHONGXING-1E            
1 53813U 22112A   26155.93765899 -.00000137  00000+0  00000+0 0  9993
2 53813   0.0393 103.2100 0000419 266.4756 302.6667  1.00271429 13723
SES-20                  
1 53960U 22123A   26155.90118479 -.00000089  00000+0  00000+0 0  9997
2 53960   0.0385  77.3659 0002174  14.6323  22.6744  1.00269977 13416
SES-21                  
1 53961U 22123B   26155.93826503  .00000081  00000+0  00000+0 0  9996
2 53961   0.0268  31.0526 0000855  39.1602  29.9312  1.00269925  7094
GALAXY 33 (G-33)        
1 54026U 22128A   26155.77772468  .00000091  00000+0  00000+0 0  9997
2 54026   0.0161  33.5739 0002025  40.2638 326.3762  1.00271770 13614
GALAXY 34 (G-34)        
1 54027U 22128B   26155.62084685  .00000070  00000+0  00000+0 0  9996
2 54027   0.0159   0.4577 0002096  81.0440 266.0785  1.00276282 13783
ANGOSAT 2               
1 54033U 22131A   26154.57147179  .00000147  00000+0  00000+0 0  9993
2 54033   0.0320  77.4861 0001675  43.8281 359.4453  1.00272126 13345
EUTELSAT HOTBIRD 13F    
1 54048U 22134A   26155.92414575  .00000099  00000+0  00000+0 0  9995
2 54048   0.0469 291.6573 0001933  74.3918 233.0162  1.00271287 13259
LDPE-2                  
1 54219U 22144A   26155.53127598  .00000132  00000+0  00000+0 0  9997
2 54219   5.5824  63.7543 0001683  89.4691 121.7668  1.00527893 11716
EUTELSAT HOTBIRD 13G    
1 54225U 22146A   26155.92414575  .00000099  00000+0  00000+0 0  9995
2 54225   0.0455 232.4986 0002144 303.4323  63.1255  1.00271022  7348
ZHONGXING-19            
1 54230U 22148A   26155.88255137 -.00000070  00000+0  00000+0 0  9995
2 54230   0.0311 274.4140 0002392 183.8754 275.9421  1.00270460 13256
GALAXY 31 (G-31)        
1 54243U 22153A   26155.89763144  .00000025  00000+0  00000+0 0  9997
2 54243   0.0124  53.4548 0001486  20.7253  21.3059  1.00272105  7010
GALAXY 32 (G-32)        
1 54244U 22153B   26154.83402102 -.00000162  00000+0  00000+0 0  9998
2 54244   0.0097 353.7552 0002383  46.7034  61.0732  1.00270822 13013
EUTELSAT 10B            
1 54259U 22157A   26155.92353909  .00000080  00000+0  00000+0 0  9997
2 54259   0.0641 101.8874 0002450   9.6559 124.2870  1.00270790 12904
GALAXY 35 (G-35)        
1 54741U 22170A   26155.90309146 -.00000150  00000+0  00000+0 0  9999
2 54741   0.0153  38.5218 0002230  40.3537  46.4870  1.00272292 12779
GALAXY 36 (G-36)        
1 54742U 22170B   26155.83267419 -.00000173  00000+0  00000+0 0  9993
2 54742   0.0170 238.9661 0002888 201.6493  23.4292  1.00272562 12659
METEOSAT-12 (MTG-I1)    
1 54743U 22170C   26155.92145907  .00000004  00000+0  00000+0 0  9993
2 54743   0.7248  20.8931 0003561  69.6448 134.1257  1.00271450 12850
SHIJIAN-23 (SJ-23)      
1 55131U 23002A   26154.66930644 -.00000165  00000+0  00000+0 0  9999
2 55131   3.6827  78.4813 0003973 278.4105 293.1700  1.00091075 12371
APSTAR-6E               
1 55239U 23005A   26154.80741422 -.00000306  00000+0  00000+0 0  9998
2 55239   0.0296 251.9045 0001095 264.1846 160.8472  1.00269237 18552
USA 342                 
1 55263U 23008A   26155.14198786  .00000150  00000+0  00000+0 0  9991
2 55263   0.0087 134.3874 0000373 135.9762  57.1445  1.00271932 12389
LDPE-3A                 
1 55264U 23008B   26155.90976483 -.00000172  00000+0  00000+0 0  9999
2 55264   2.3153  81.8149 0001223  41.7475  38.0268  0.99148427 11693
ELEKTRO-L 4             
1 55506U 23016A   26155.83591897 -.00000046  00000+0  00000+0 0  9991
2 55506   0.0742 185.8718 0000672 355.8265 178.3064  1.00272506 12200
AMAZONAS NEXUS          
1 55508U 23017A   26155.69449756 -.00000270  00000+0  00000+0 0  9993
2 55508   0.0364  32.0326 0005424  29.5466  20.5956  1.00270829  6924
ZHONGXING-26            
1 55686U 23023A   26155.94632569 -.00000341  00000+0  00000+0 0  9990
2 55686   0.0704  72.4499 0004168   9.1598 277.5798  1.00270060 12104
LUCH-5X (OLYMP-K 2)     
1 55841U 23031A   26154.72656752  .00000045  00000+0  00000+0 0  9997
2 55841   0.0239  54.9081 0000780 159.5695   1.2300  1.00270312 11803
GAOFEN-13 02            
1 55912U 23036A   26155.87960469 -.00000206  00000+0  00000+0 0  9991
2 55912   1.0190 359.5272 0004229 343.4731  15.2472  1.00274289 11961
SES-18                  
1 55970U 23038A   26155.90118479 -.00000089  00000+0  00000+0 0  9996
2 55970   0.0140 296.9589 0000469  70.3954 107.3238  1.00272094 11986
SES-19                  
1 55971U 23038B   26155.62509574  .00000100  00000+0  00000+0 0  9999
2 55971   0.0111   9.5341 0001781  61.7513 271.9241  1.00272932 11963
INTELSAT 40E (IS-40E)   
1 56174U 23052A   26155.61834057 -.00000162  00000+0  00000+0 0  9996
2 56174   0.0148  28.7642 0002125  86.5025 269.4042  1.00272312 11695
VIASAT-3 F1             
1 56370U 23060A   26155.83267419  .00000000  00000+0  00000+0 0  9999
2 56370   0.0232 320.6697 0000919 101.7629  41.6159  1.00267593 11313
